     2              NAVIGATION DATA                         RINEX VERSION / TYPE
CCRINEXN V1.6.0 UX  CDDIS               02-JAN-19 00:31     PGM / RUN BY / DATE 
IGS BROADCAST EPHEMERIS FILE                                COMMENT             
    0.7451D-08 -0.1490D-07 -0.5960D-07  0.1192D-06          ION ALPHA           
    0.9216D+05 -0.1147D+06 -0.1311D+06  0.7209D+06          ION BETA            
    0.931322574615D-09 0.799360577730D-14   319488     2034 DELTA-UTC: A0,A1,T,W
    18                                                      LEAP SECONDS        
                                                            END OF HEADER       
18 19  1  1 16  0  0.0 0.114943832159D-04 0.375166564481D-11 0.000000000000D+00
    0.650000000000D+02-0.424062500000D+02 0.462912139291D-08-0.548940786501D-01
   -0.232830643654D-05 0.149530968629D-01 0.100936740637D-04 0.515360989952D+04
    0.230400000000D+06-0.163912773132D-06-0.400276353665D+00 0.912696123123D-07
    0.952669375212D+00 0.186593750000D+03 0.136739711100D+01-0.826427281156D-08
    0.346800159904D-09 0.100000000000D+01 0.203400000000D+04 0.000000000000D+00
    0.200000000000D+01 0.000000000000D+00-0.651925802231D-08 0.650000000000D+02
    0.227040000000D+06 0.400000000000D+01 0.000000000000D+00 0.000000000000D+00
19 19  1  1 16  0  0.0-0.367855653167D-03 0.397903932026D-11 0.000000000000D+00
    0.560000000000D+02-0.822500000000D+02 0.394266422779D-08-0.118878183991D+01
   -0.398233532906D-05 0.939049513545D-02 0.658631324768D-05 0.515361811447D+04
    0.230400000000D+06-0.298023223877D-07-0.130229667276D+01 0.223517417908D-06
    0.981254087891D+00 0.262468750000D+03 0.132848393043D+01-0.796283168390D-08
   -0.128576784311D-09 0.100000000000D+01 0.203400000000D+04 0.000000000000D+00
    0.200000000000D+01 0.000000000000D+00-0.153668224812D-07 0.560000000000D+02
    0.223218000000D+06 0.400000000000D+01 0.000000000000D+00 0.000000000000D+00
20 19  1  1 16  0  0.0 0.520632136613D-03 0.454747350886D-12 0.000000000000D+00
    0.580000000000D+02 0.406250000000D+01 0.560273338834D-08-0.878129333726D-01
    0.173225998878D-06 0.448265403975D-02 0.610761344433D-05 0.515366296387D+04
    0.230400000000D+06-0.242143869400D-07 0.577001505332D+00-0.651925802231D-07
    0.929754785253D+00 0.245437500000D+03 0.222414281024D+01-0.859071480619D-08
    0.351800366616D-09 0.100000000000D+01 0.203400000000D+04 0.000000000000D+00
    0.200000000000D+01 0.000000000000D+00-0.838190317154D-08 0.580000000000D+02
    0.223230000000D+06 0.000000000000D+00 0.000000000000D+00 0.000000000000D+00
21 19  1  1 16  0  0.0-0.276915729046D-03 0.682121026330D-11 0.000000000000D+00
    0.960000000000D+02-0.244375000000D+02 0.461519222839D-08-0.157904645623D+01
   -0.782310962677D-06 0.246571776224D-01 0.106617808342D-04 0.515356143761D+04
    0.230400000000D+06 0.745058059692D-08-0.408597706729D+00 0.696629285812D-06
    0.946962675151D+00 0.165187500000D+03-0.149847124422D+01-0.802962052404D-08
    0.398588023698D-09 0.100000000000D+01 0.203400000000D+04 0.000000000000D+00
    0.280000000000D+01 0.000000000000D+00-0.977888703346D-08 0.960000000000D+02
    0.223230000000D+06 0.000000000000D+00 0.000000000000D+00 0.000000000000D+00
22 19  1  1 16  0  0.0-0.612700823694D-03-0.898126018001D-11 0.000000000000D+00
    0.920000000000D+02 0.662500000000D+01 0.572988145819D-08 0.156460992273D+01
    0.229105353355D-06 0.703773507848D-02 0.600889325142D-05 0.515361009598D+04
    0.230400000000D+06 0.651925802231D-07 0.626151209391D+00-0.195577740669D-06
    0.926441631293D+00 0.247500000000D+03-0.144139805254D+01-0.856142801098D-08
    0.371444042191D-09 0.100000000000D+01 0.203400000000D+04 0.000000000000D+00
    0.200000000000D+01 0.000000000000D+00-0.181607902050D-07 0.920000000000D+02
    0.223200000000D+06 0.000000000000D+00 0.000000000000D+00 0.000000000000D+00
23 19  1  1 16  0  0.0-0.201830640435D-03 0.113686837722D-11 0.000000000000D+00
    0.580000000000D+02-0.254062500000D+02 0.524664711534D-08 0.927997611443D+00
   -0.108405947685D-05 0.126649527810D-01 0.848807394505D-05 0.515366430092D+04
    0.230400000000D+06-0.150874257088D-06 0.172317647354D+01 0.707805156708D-07
    0.942904550639D+00 0.210906250000D+03-0.231042522847D+01-0.846785272006D-08
   -0.553951645738D-09 0.100000000000D+01 0.203400000000D+04 0.000000000000D+00
    0.200000000000D+01 0.000000000000D+00-0.200234353542D-07 0.580000000000D+02
    0.223218000000D+06 0.400000000000D+01 0.000000000000D+00 0.000000000000D+00
24 19  1  1 16  0  0.0-0.602477230132D-04-0.454747350886D-12 0.000000000000D+00
    0.470000000000D+02 0.870000000000D+02 0.490413265553D-08 0.500514065334D+00
    0.466220080852D-05 0.799601955805D-02 0.937469303608D-05 0.515374034882D+04
    0.230400000000D+06 0.745058059692D-08 0.274017054102D+01 0.173225998878D-06
    0.939999736614D+00 0.185156250000D+03 0.572474101570D+00-0.825677215488D-08
   -0.167506980508D-09 0.100000000000D+01 0.203400000000D+04 0.000000000000D+00
    0.200000000000D+01 0.000000000000D+00 0.279396772385D-08 0.470000000000D+02
    0.223230000000D+06 0.000000000000D+00 0.000000000000D+00 0.000000000000D+00
25 19  1  1 16  0  0.0-0.699705444276D-03-0.545696821064D-11 0.000000000000D+00
    0.550000000000D+02 0.438750000000D+02 0.443161329855D-08-0.143561902727D+01
    0.231713056564D-05 0.793230521958D-02 0.270642340183D-05 0.515377437401D+04
    0.230400000000D+06 0.167638063431D-06-0.244531428340D+01-0.931322574616D-08
    0.972058613480D+00 0.333531250000D+03 0.846059275776D+00-0.825498691626D-08
    0.150006240068D-10 0.100000000000D+01 0.203400000000D+04 0.000000000000D+00
    0.200000000000D+01 0.000000000000D+00 0.558793544769D-08 0.550000000000D+02
    0.223770000000D+06 0.000000000000D+00 0.000000000000D+00 0.000000000000D+00
26 19  1  1 16  0  0.0 0.842926092446D-04 0.106865627458D-10 0.000000000000D+00
    0.120000000000D+02 0.576562500000D+02 0.485663086960D-08-0.209887982796D+01
    0.298023223877D-05 0.346806820016D-02 0.290758907795D-05 0.515377387428D+04
    0.230400000000D+06-0.502914190292D-07-0.247121512949D+01 0.372529029846D-08
    0.953462828331D+00 0.322218750000D+03 0.752733730610D-01-0.847642450568D-08
    0.123219418298D-09 0.100000000000D+01 0.203400000000D+04 0.000000000000D+00
    0.200000000000D+01 0.000000000000D+00 0.745058059692D-08 0.120000000000D+02
    0.223200000000D+06 0.400000000000D+01 0.000000000000D+00 0.000000000000D+00
27 19  1  1 16  0  0.0-0.417293049395D-04-0.625277607469D-11 0.000000000000D+00
    0.920000000000D+02-0.973125000000D+02 0.401802450971D-08 0.234292234586D+01
   -0.498257577419D-05 0.638045626692D-02 0.558979809284D-05 0.515370826531D+04
    0.230400000000D+06-0.800937414169D-07-0.140419596240D+01-0.316649675369D-07
    0.978088622826D+00 0.281531250000D+03 0.426488336105D+00-0.800354766560D-08
   -0.210008747707D-09 0.100000000000D+01 0.203400000000D+04 0.000000000000D+00
    0.280000000000D+01 0.000000000000D+00 0.186264514923D-08 0.920000000000D+02
    0.223200000000D+06 0.400000000000D+01 0.000000000000D+00 0.000000000000D+00
28 19  1  1 16  0  0.0 0.760554801673D-03 0.113686837722D-11 0.000000000000D+00
    0.108000000000D+03 0.461250000000D+02 0.401731019424D-08-0.308613433475D+01
    0.240094959736D-05 0.195350379217D-01 0.247545540333D-05 0.515369925308D+04
    0.230400000000D+06 0.281259417534D-06-0.235983981872D+01 0.614672899246D-07
    0.983798122912D+00 0.343093750000D+03-0.148289236773D+01-0.776460914142D-08
    0.339299847486D-10 0.100000000000D+01 0.203400000000D+04 0.000000000000D+00
    0.200000000000D+01 0.000000000000D+00-0.111758708954D-07 0.108000000000D+03
    0.223218000000D+06 0.400000000000D+01 0.000000000000D+00 0.000000000000D+00
29 19  1  1 16  0  0.0 0.302786473185D-03-0.829913915368D-11 0.000000000000D+00
    0.300000000000D+01-0.930312500000D+02 0.383623133260D-08 0.301730797437D+01
   -0.475160777569D-05 0.620083417743D-03 0.711344182491D-05 0.515358578682D+04
    0.230400000000D+06-0.223517417908D-07-0.133793962285D+01 0.279396772385D-07
    0.984923611622D+00 0.254468750000D+03 0.155485751394D+01-0.784497000694D-08
   -0.208580111516D-09 0.100000000000D+01 0.203400000000D+04 0.000000000000D+00
    0.200000000000D+01 0.000000000000D+00-0.102445483208D-07 0.300000000000D+01
    0.223230000000D+06 0.000000000000D+00 0.000000000000D+00 0.000000000000D+00
30 19  1  1 16  0  0.0-0.289888121188D-04-0.602540239925D-11 0.000000000000D+00
    0.680000000000D+02 0.826562500000D+02 0.469555273148D-08-0.476426270667D+00
    0.419281423092D-05 0.357145280577D-02 0.932440161705D-05 0.515365172005D+04
    0.230400000000D+06 0.577419996262D-07 0.283395193439D+01-0.130385160446D-07
    0.942444800837D+00 0.190218750000D+03-0.300627419418D+01-0.813676750045D-08
   -0.115719105880D-09 0.100000000000D+01 0.203400000000D+04 0.000000000000D+00
    0.200000000000D+01 0.000000000000D+00 0.372529029846D-08 0.680000000000D+02
    0.223218000000D+06 0.400000000000D+01 0.000000000000D+00 0.000000000000D+00
31 19  1  1 16  0  0.0 0.687791034579D-04-0.261479726760D-11 0.000000000000D+00
    0.600000000000D+02 0.943437500000D+02 0.435375291374D-08-0.853833636455D+00
    0.482052564621D-05 0.916619366035D-02 0.978820025921D-05 0.515381170845D+04
    0.230400000000D+06 0.108033418655D-06 0.281704421041D+01-0.171363353729D-06
    0.961520613296D+00 0.191187500000D+03-0.430865142691D-01-0.797283217224D-08
    0.132148363433D-10 0.100000000000D+01 0.203400000000D+04 0.000000000000D+00
    0.200000000000D+01 0.000000000000D+00-0.135041773319D-07 0.600000000000D+02
    0.223200000000D+06 0.000000000000D+00 0.000000000000D+00 0.000000000000D+00
